P/2012 F2 (PANSTARRS),e,14.7030,226.9917,33.3246,6.334705,0.0618179,0.54128248,210.4503,08/05.0/2022,2000,g 12.0,4.0
# From MPEC 2022-ED3
P/2012 G1 (PANSTARRS),e,12.1738,283.2780,266.0985,4.164807,0.1159610,0.32952130,78.1341,08/05.0/2022,2000,g 15.0,4.0
# From MPC 80898
P/2012 K3 (Gibbs),e,13.1915,125.8169,172.2385,3.627787,0.1426400,0.42279039,154.5908,08/05.0/2022,2000,g 15.0,4.0
# From MPC 88326
P/2012 NJ (La Sagra),e,84.6098,315.5731,338.3794,8.465173,0.0400175,0.84684787,148.1870,08/05.0/2022,2000,g 14.5,4.0
# From MPC 81470
P/2012 O1 (McNaught),e,7.4280,91.9446,238.3068,3.541455,0.1478875,0.59442524,185.0215,08/05.0/2022,2000,g 17.5,4.0
# From MPC 80899
P/2012 O2 (McNaught),e,24.4749,120.6844,183.4720,3.625690,0.1427638,0.53223253,169.4623,08/05.0/2022,2000,g 17.0,4.0
# From MPC 82320
P/2012 T2 (PANSTARRS),e,12.5654,73.7155,310.6609,5.729899,0.0718594,0.16214963,243.3019,08/05.0/2022,2000,g 10.0,4.0
# From MPC 80900
P/2012 T3 (PANSTARRS),e,9.5610,114.3817,195.5275,6.151042,0.0646072,0.61691768,241.8357,08/05.0/2022,2000,g 15.0,4.0
# From MPC 82720
P/2012 U2 (PANSTARRS),e,10.7593,185.3235,228.2436,7.133688,0.0517289,0.49961587,183.7113,08/05.0/2022,2000,g 12.5,4.0
# From MPC 84024
P/2012 US27 (Siding Spring),e,39.3649,49.2004,0.8135,5.165494,0.0839530,0.64813798,292.1386,08/05.0/2022,2000,g 13.5,4.0
# From MPC 82721
P/2012 WA34 (Lemmon-PANSTARRS),e,6.0797,93.5880,356.4376,4.687685,0.0971105,0.34456687,327.2743,08/05.0/2022,2000,g 13.5,4.0
# From MPC 82721
P/2013 AL76 (Catalina),e,144.8617,146.0018,27.0481,6.498394,0.0594970,0.68618184,210.1399,08/05.0/2022,2000,g 16.0,4.0
# From MPEC 2022-K19
P/2013 EW90,e,31.7921,160.2940,346.1201,4.113436,0.1181400,0.19464756,63.3910,08/05.0/2022,2000,g 14.3,4.0
# From MPC 91612
P/2013 G1 (Kowalski),e,5.4593,221.3271,51.5340,6.895557,0.0544315,0.51162747,171.9733,08/05.0/2022,2000,g 11.0,4.0
# From MPC 84025
P/2013 G4 (PANSTARRS),e,5.9161,339.6372,214.6404,4.439461,0.1053680,0.40932064,4.9159,08/05.0/2022,2000,g 15.0,4.0
# From MPC 91613
P/2013 J2 (McNaught),e,15.5167,289.3683,37.8414,6.222835,0.0634924,0.65751772,207.0460,08/05.0/2022,2000,g 13.0,4.0
# From MPC 86229
P/2013 N3 (PANSTARRS),e,2.1739,17.4659,323.9589,7.393947,0.0490218,0.59320850,151.4705,08/05.0/2022,2000,g 13.0,4.0
# From MPC 85834
P/2013 N5 (PANSTARRS),e,23.4603,187.1553,176.9311,6.797197,0.0556172,0.73251237,184.4382,08/05.0/2022,2000,g 17.0,4.0
# From MPC 85834
P/2013 P1 (PANSTARRS),e,18.7251,160.5907,138.2419,8.579666,0.0392192,0.60498916,135.0710,08/05.0/2022,2000,g 12.0,4.0
# From MPC 94671
P/2013 R3 (Catalina-PANSTARRS),e,0.8649,341.9814,11.2700,3.032490,0.1866401,0.27555628,249.2960,08/05.0/2022,2000,g 14.0,4.0
# From unp
P/2013 R3-A (Catalina-PANSTARRS),e,0.8643,341.9482,11.3090,3.032347,0.1866533,0.27552592,249.3364,08/05.0/2022,2000,g  9.0,4.0
# From MPEC 2015-M77
P/2013 R3-B (Catalina-PANSTARRS),e,0.8655,342.0042,11.2438,3.032567,0.1866330,0.27557121,249.2744,08/05.0/2022,2000,g  9.0,4.0
# From MPC 85835
P/2013 T1 (PANSTARRS),e,24.3027,10.0803,346.1512,5.857604,0.0695223,0.62428672,228.3966,08/05.0/2022,2000,g 16.5,4.0
# From MPC 86643
P/2013 T2 (Schwartz),e,9.4577,0.8000,345.5684,3.491479,0.1510741,0.50117473,147.7648,08/05.0/2022,2000,g 16.0,4.0
# From MPC 91613
P/2013 W1 (PANSTARRS),e,4.6960,117.8428,1.2405,3.488027,0.1512984,0.59278150,104.9696,08/05.0/2022,2000,g 17.5,4.0
# From MPC101095
P/2013 YG46 (Spacewatch),e,7.8574,48.8362,242.5924,3.274226,0.1663570,0.45469335,334.3359,08/05.0/2022,2000,g 10.0,4.0
# From MPC 89728
P/2014 A2 (Hill),e,24.5406,106.6309,356.1527,5.927469,0.0682968,0.64549975,219.9768,08/05.0/2022,2000,g 15.0,4.0
# From MPC 92981
P/2014 A3 (PANSTARRS),e,13.7141,229.9770,214.0459,4.610500,0.0995593,0.24687602,334.1319,08/05.0/2022,2000,g 12.0,4.0
# From MPEC 2022-HC2
C/2014 B1 (Schwartz),e,28.4113,161.4219,345.6338,3977,0.0000039,0.99760052,0.0000,09/06.1805/2017,2000,g  4.0,4.0
# From MPC102095
P/2014 C1 (TOTAS),e,2.6928,167.8082,23.8921,3.033982,0.1865025,0.45043233,225.2617,08/05.0/2022,2000,g 15.5,4.0
# From MPEC 2022-OB6
C/2014 F3 (Sheppard-Trujillo),e,6.5571,326.5299,4.3049,14.70254,0.0174830,0.61198361,7.5622,08/05.0/2022,2000,g  6.0,4.0
# From MPC 98560
P/2014 L2 (NEOWISE),e,5.1997,149.3472,182.7058,6.304687,0.0622599,0.64810053,182.8137,08/05.0/2022,2000,g 12.0,4.0
# From MPC 90769
P/2014 L3 (Hill),e,6.2708,115.4872,178.6997,8.176351,0.0421565,0.77301768,124.6553,08/05.0/2022,2000,g 16.0,4.0
# From MPC 91614
P/2014 M4 (PANSTARRS),e,3.3414,263.2011,148.0114,5.869572,0.0693098,0.59532713,192.4682,08/05.0/2022,2000,g 15.0,4.0
# From MPEC 2022-K19
P/2014 MG4 (Spacewatch-PANSTARRS),e,9.3682,311.7315,299.0648,5.012984,0.0878132,0.25903293,292.8568,08/05.0/2022,2000,g  9.5,4.0
# From MPC 98560
P/2014 O3 (PANSTARRS),e,7.7985,87.6428,204.7625,7.574039,0.0472838,0.38488821,143.2517,08/05.0/2022,2000,g 10.5,4.0
# From MPEC 2022-C56
C/2014 OG392 (PANSTARRS),e,9.0329,145.7970,254.2474,12.24851,0.0229921,0.18604020,5.6067,08/05.0/2022,2000,g  6.0,4.0
# From MPC 91616
P/2014 U4 (PANSTARRS),e,6.4292,11.8844,347.8115,3.508101,0.1500016,0.46492553,80.6068,08/05.0/2022,2000,g 18.0,4.0
# From MPEC 2022-OB6
C/2014 UN271 (Bernardinelli-Bernstein),h,01/23.6765/2031,95.4306,189.8989,326.2835,1.000207,10.942270,2000,2.5,3.2
# From MPC 95211
P/2014 V1 (PANSTARRS),e,22.5275,166.2004,177.6381,5.479669,0.0768374,0.53450998,211.0851,08/05.0/2022,2000,g 14.0,4.0
# From MPC 93586
P/2014 W1 (PANSTARRS),e,8.8366,246.2383,152.1530,4.465250,0.1044565,0.38918852,307.6284,08/05.0/2022,2000,g 15.5,4.0
# From MPC105542
P/2014 W4 (PANSTARRS),e,15.2821,33.3832,67.6277,6.590490,0.0582542,0.35297421,140.3923,08/05.0/2022,2000,g 11.0,4.0
# From MPC 94281
P/2014 X1 (Elenin),e,26.0391,61.5510,33.8830,6.205870,0.0637529,0.70929207,176.8174,08/05.0/2022,2000,g 15.0,4.0
# From MPC 92275
P/2015 A3 (PANSTARRS),e,172.5383,277.2844,249.4075,7.813761,0.0451247,0.85049211,123.0091,08/05.0/2022,2000,g 20.0,4.0
# From MPC 99270
P/2015 B1 (PANSTARRS),e,18.0482,352.9377,188.8941,9.493052,0.0336973,0.36672868,84.9282,08/05.0/2022,2000,g  8.5,4.0
# From MPC109141
P/2015 B4 (Lemmon-PANSTARRS),e,1.7624,266.0495,227.3032,8.519836,0.0396330,0.56032324,108.6234,08/05.0/2022,2000,g 11.0,4.0
# From MPC101096
P/2015 C1 (TOTAS-Gibbs),e,13.9111,348.7970,178.1478,6.576775,0.0584365,0.56063969,155.4886,08/05.0/2022,2000,g 12.5,4.0
# From MPC109141
P/2015 D5 (Kowalski),e,20.5264,74.0678,39.6994,8.956854,0.0367681,0.48957947,112.0919,08/05.0/2022,2000,g  9.0,4.0
# From MPC 96866
P/2015 D6 (Lemmon-PANSTARRS),e,20.2039,45.8891,125.0483,7.137886,0.0516832,0.36126721,134.1551,08/05.0/2022,2000,g 10.5,4.0
# From MPEC 2021-P47
P/2015 HG16 (PANSTARRS),e,18.8097,57.7195,47.6886,4.767596,0.0946793,0.35231518,283.5053,08/05.0/2022,2000,g 12.5,4.0
# From MPC 95213
P/2015 K5 (PANSTARRS),e,39.9443,134.1990,106.3422,6.725609,0.0565076,0.55216078,148.1162,08/05.0/2022,2000,g 13.5,4.0
# From MPC107684
P/2015 M2 (PANSTARRS),e,3.9702,86.5853,225.9075,7.240453,0.0505889,0.18017379,127.3605,08/05.0/2022,2000,g  8.5,4.0
# From MPEC 2021-P47
C/2015 O1 (PANSTARRS),h,02/20.1689/2018,127.1920,299.8369,89.5646,1.001505,3.722910,2000,6.5,4.0
# From MPC 99819
P/2015 P4 (PANSTARRS),e,8.7174,104.7020,280.6350,6.046959,0.0662824,0.58560745,158.1613,08/05.0/2022,2000,g 14.0,4.0
# From MPEC 2022-K19
P/2015 PD229 (Cameron-ISON),e,2.0255,342.6488,352.6491,7.190540,0.0511166,0.32783028,130.0479,08/05.0/2022,2000,g 11.5,2.0
# From MPC 96867
P/2015 Q2 (Pimentel),e,146.5406,228.5126,244.6207,7.352995,0.0494319,0.75055802,124.7827,08/05.0/2022,2000,g 15.5,4.0
# From MPC 98562
P/2015 R1 (PANSTARRS),e,22.6945,48.3424,300.5533,5.880260,0.0691209,0.63437831,179.1897,08/05.0/2022,2000,g 14.0,4.0
# From MPC 95734
P/2015 R2 (PANSTARRS),e,15.4856,168.5971,149.8403,4.486032,0.1037315,0.45285701,270.4486,08/05.0/2022,2000,g 14.5,4.0
# From MPC 96280
P/2015 T3 (PANSTARRS),e,13.0937,120.5019,178.6330,4.326181,0.1095335,0.50818108,359.9227,12/21.0/2014,2000,g 14.0,4.0
# From MPC102953
P/2015 TO19 (Lemmon-PANSTARRS),e,6.5002,321.6363,89.1509,4.552841,0.1014566,0.35913261,237.6131,08/05.0/2022,2000,g 14.0,4.0
# From MPC110080
P/2015 TP200 (LINEAR),e,8.7807,7.0202,82.4572,7.266251,0.0503198,0.53590008,106.0177,08/05.0/2022,2000,g 11.0,4.0
# From MPC115881
C/2015 V1 (PANSTARRS),e,139.2300,197.1430,179.6762,2199,0.0000096,0.99805456,0.0000,12/16.4238/2017,2000,g  6.5,4.0
# From MPC115881
C/2015 VL62 (Lemmon-Yeung-PANSTARRS),h,08/28.1836/2017,165.8240,95.2034,129.0062,1.001861,2.724910,2000,8.0,4.0
# From MPC101098
P/2015 W2 (Catalina),e,11.6088,294.1780,117.5225,7.291192,0.0500618,0.63503224,125.0349,08/05.0/2022,2000,g 13.0,4.0
# From MPEC 2021-N06
P/2015 X1 (PANSTARRS),e,12.1521,161.7585,218.7466,3.637407,0.1420746,0.41935138,355.3576,08/05.0/2022,2000,g 16.0,4.0
# From MPEC 2022-OB6
C/2015 XY1 (Lemmon),h,04/25.8477/2018,148.8516,281.5853,196.1453,1.000215,7.923645,2000,5.5,4.0
# From MPEC 2022-OB6
P/2015 X3 (PANSTARRS),e,24.3979,77.2786,306.7268,5.004323,0.0880412,0.43989049,224.5326,08/05.0/2022,2000,g 15.0,4.0
# From MPC119995
C/2015 X5 (PANSTARRS),e,124.3150,122.3186,27.5558,18856,0.0000004,0.99963967,0.0000,12/27.4835/2017,2000,g  7.5,4.0
# From MPC115881
P/2015 X6 (PANSTARRS),e,4.5646,106.9365,329.7881,2.752750,0.2158012,0.17298589,141.7712,08/05.0/2022,2000,g 16.0,4.0
# From MPEC 2022-O08
C/2016 A1 (PANSTARRS),e,121.2114,128.1812,10.1099,12061,0.0000007,0.99955919,0.0000,11/21.0467/2017,2000,g  6.0,4.0
# From MPC100282
P/2016 A2 (Christensen),e,26.4032,291.6177,141.2998,4.753482,0.0951013,0.27074317,248.2048,08/05.0/2022,2000,g 11.5,4.0
# From MPEC 2022-OB6
P/2016 A3 (PANSTARRS),e,8.5104,187.2313,340.9541,7.882314,0.0445373,0.38607263,85.8012,08/05.0/2022,2000,g 10.0,4.0
# From MPC102098
P/2016 A7 (PANSTARRS),e,16.6032,221.4972,352.5553,5.034651,0.0872469,0.56440304,205.6825,08/05.0/2022,2000,g 16.0,4.0
# From MPC109143
P/2016 BA14 (PANSTARRS),e,18.8962,180.5149,351.9473,3.026128,0.1872290,0.66485566,77.4686,08/05.0/2022,2000,g 21.0,4.0
# From MPEC 2021-P47
